{
     "restaurant":[ 
           {"name": "Fiskfélagið",
            "address": "Vesturgata 2a, Grófartorg",
            "postalcode": "101 Reykjavík",
            "website": "fishcompany.is",
            "phone": "552 5300",
            "image":""
             },
            
           {"name": "Grillmarkaðurinn", 
             "address": "Lækjargata 2a",
             "postalcode": "101 Reykjavík",
             "website": "grillmarkadurinn.is",
             "phone": "571 7777",
             "image":""
             },
   
           {"name": "Sæta Svínið Gastropub", 
             "address": "Hafnarstræti 1-3",
             "postalcode": "101 Reykjavík",
             "website": "saetasvinid.is",
             "phone": "555 2900",
             "image":"" 
            },
   
        {"name": "Apotek Kitchen+Bar", 
             "address": "Austurstræti 16",
             "postalcode": "101 Reykjavík",
             "website": "apotekrestaurant.is",
             "phone": "552 5300",
             "image":"" 
            },
   
        {"name": "Sjávargrillið", 
             "address": "Skólavörðustígur 14",
             "postalcode": "101 Reykjavík",
             "website": "sjavargrillid.is",
             "phone": "571 1100",
             "image":"" 
            },
   
        {"name": "Kol", 
             "address": "Skólavörðustígur 40",
             "postalcode": "101 Reykjavík",
             "website": "kolrestaurant.is",
             "phone": "517 7474",
             "image":"" 
            },
   
        {"name": "Rok", 
             "address": "Frakkastígur 26a",
             "postalcode": "101 Reykjavík",
             "website": "rokrestaurant.is",
             "phone": "544 4443",
             "image":"" 
            },
   
        {"name": "Sushi Social", 
             "address": "Þingholtsstræti 5",
             "postalcode": "101 Reykjavík",
             "website": "sushisocial.is",
             "phone": "568 6600",
             "image":"" 
            },
   
        {"name": "Skólabrú Restaurant", 
             "address": "Pósthússtræti 17",
             "postalcode": "101 Reykjavík",
             "mail": "skolabru.is",
             "phone": "511 1690",
             "image":"" 
            },
   
        {"name": "Lækjarbrekka", 
             "address": "Bankastræti 2",
             "postalcode": "101 Reykjavík",
             "mail": "laekjabrekka.is",
             "phone": "551 4430",
             "image":"" 
            },
   
        {"name": "Snaps Bistro", 
             "address": "Þórsgata 1",
             "postalcode": "101 Reykjavík",
             "mail": "snapsbistro.is",
             "phone": "511 6677",
             "image":"" 
            }
        ],
   
        "swim" :[
   
        {"name": "Sundhöllin", 
             "address": "Barónstígur 45a",
             "postalcode": "101 Reykjavík",
             "mail": "reykjavik.is",
             "phone": "411 5350",
             "image":"" 
            },
   
        {"name": "Vesturbæjarlaug", 
             "address": "Hofsvallagata",
             "postalcode": "107 Reykjavík",
             "mail": "vesturbaejarlaug.is",
             "phone": "411 5150",
             "image":"" 
            },
   
        {"name": "Sundlaug Seltjarnarness", 
             "address": "Hrólfsskálavör 13",
             "postalcode": "170 Seltjarnarnes",
             "mail": "seltjarnarnes.is",
             "phone": "561 1551",
             "image":"" 
            },
   
        {"name": "Laugardalslaug", 
             "address": "Sundlaugavegur 30",
             "postalcode": "105 Reykjavík",
             "mail": "reykjavik.is",
             "phone": "411 5100",
             "image":"" 
            }
        ],
   
        "cafes" : [
   
        {"name": "Te og Kaffi", 
             "address": "Austurstræti 18",
             "postalcode": "101 Reykjavík",
             "mail": "teogkaffi.is",
             "phone": "527 2884",
             "image":"" 
            },
   
        {"name": "Café Babalú", 
             "address": "Skólavörðustígur 22",
             "postalcode": "101 Reykjavík",
             "mail": "bablu.is",
             "phone": "555 8845",
             "image":"" 
            },
   
        {"name": "Kaffibrennslan", 
             "address": "Laugavegur 21",
             "postalcode": "101 Reykjavík",
             "mail": "kaffibrennslan101.is",
             "phone": "511 8888",
             "image":"" 
            },
   
        {"name": "Iðnó", 
             "address": "Vonarstræti 3",
             "postalcode": "101 Reykjavík",
             "mail": "idnorvk.is",
             "phone": "537 8800",
             "image":"" 
            },
   
        {"name": "Kaldi Bar/Café", 
             "address": "Laugavegur 20b",
             "postalcode": "101 Reykjavík",
             "mail": "facebook.com",
             "phone": "581 2200",
             "image":"" 
            },
   
        {"name": "Mokka Kaffi", 
             "address": "Skólavörðustígur 3a",
             "postalcode": "101 Reykjavík",
             "mail": "mokka.is",
             "phone": "552 1174",
             "image":"" 
            },
   
        {"name": "Cupcake Cafe", 
             "address": "Grettisgata 3",
             "postalcode": "101 Reykjavík",
             "mail": "Vefs+iðu vantar",
             "phone": "823 3041",
             "image":"" 
            }
        ],
   
        "hairsaloons" :[
        {"name": "Cupcake Cafe", 
             "address": "Grettisgata 3",
             "postalcode": "101 Reykjavík",
             "mail": "Vefs+iðu vantar",
             "phone": "823 3041",
             "image":"" 
            },
   
        {"name": "Cupcake Cafe", 
             "address": "Grettisgata 3",
             "postalcode": "101 Reykjavík",
             "mail": "Vefs+iðu vantar",
             "phone": "823 3041",
             "image":"" 
            },
   
        {"name": "Cupcake Cafe", 
             "address": "Grettisgata 3",
             "postalcode": "101 Reykjavík",
             "mail": "Vefs+iðu vantar",
             "phone": "823 3041",
             "image":"" 
            },
   
        {"name": "Cupcake Cafe", 
             "address": "Grettisgata 3",
             "postalcode": "101 Reykjavík",
             "mail": "Vefs+iðu vantar",
             "phone": "823 3041",
             "image":"" 
            },
   
        {"name": "Cupcake Cafe", 
             "address": "Grettisgata 3",
             "postalcode": "101 Reykjavík",
             "mail": "Vefs+iðu vantar",
             "phone": "823 3041",
             "image":"" 
            },
   
        {"name": "Cupcake Cafe", 
             "address": "Grettisgata 3",
             "postalcode": "101 Reykjavík",
             "mail": "Vefs+iðu vantar",
             "phone": "823 3041",
             "image":"" 
            },
   
        {"name": "Cupcake Cafe", 
             "address": "Grettisgata 3",
             "postalcode": "101 Reykjavík",
             "mail": "Vefs+iðu vantar",
             "phone": "823 3041",
             "image":"" 
            },
   
        {"name": "Cupcake Cafe", 
             "address": "Grettisgata 3",
             "postalcode": "101 Reykjavík",
             "mail": "Vefs+iðu vantar",
             "phone": "823 3041",
             "image":"" 
            }
   
        ],
   
        "bars" : [
        {"name": "Cupcake Cafe", 
             "address": "Grettisgata 3",
             "postalcode": "101 Reykjavík",
             "mail": "Vefs+iðu vantar",
             "phone": "823 3041",
             "image":"" 
            },
   
        {"name": "Cupcake Cafe", 
             "address": "Grettisgata 3",
             "postalcode": "101 Reykjavík",
             "mail": "Vefs+iðu vantar",
             "phone": "823 3041",
             "image":"" 
            }
        ]
}